     2              NAVIGATION DATA                         RINEX VERSION / TYPE
CCRINEXN V1.6.0 UX  CDDIS               11-AUG-16 15:33     PGM / RUN BY / DATE 
IGS BROADCAST EPHEMERIS FILE                                COMMENT             
    0.8382D-08  0.2235D-07 -0.5960D-07 -0.1192D-06          ION ALPHA           
    0.9216D+05  0.1147D+06 -0.6554D+05 -0.5898D+06          ION BETA            
   -0.186264514923D-08-0.710542735760D-14   503808     1909 DELTA-UTC: A0,A1,T,W
    17                                                      LEAP SECONDS        
                                                            END OF HEADER       
21 16  8 10 22  0  0.0-0.530195888132D-03-0.682121026330D-12 0.000000000000D+00
    0.570000000000D+02-0.182500000000D+02 0.521307428833D-08 0.196871132148D+01
   -0.126101076603D-05 0.233728581807D-01 0.676512718201D-05 0.515356854248D+04
    0.338400000000D+06 0.178813934326D-06 0.270963750380D+01-0.543892383575D-06
    0.937284785948D+00 0.236812500000D+03-0.176951573056D+01-0.812926718804D-08
    0.296440919383D-09 0.100000000000D+01 0.190900000000D+04 0.000000000000D+00
    0.200000000000D+01 0.000000000000D+00-0.977888703346D-08 0.570000000000D+02
    0.335730000000D+06 0.400000000000D+01 0.000000000000D+00 0.000000000000D+00
22 16  8 10 22  0  0.0 0.274854712188D-03-0.954969436862D-11 0.000000000000D+00
    0.310000000000D+02-0.177812500000D+02 0.560094758766D-08-0.102343718588D+01
   -0.892207026482D-06 0.756457727402D-02 0.753253698349D-05 0.515375652885D+04
    0.338400000000D+06-0.113621354103D-06-0.253173650247D+01 0.188127160072D-06
    0.923177934204D+00 0.213093750000D+03-0.187794435421D+01-0.858250035273D-08
   -0.202865593023D-09 0.000000000000D+00 0.190900000000D+04 0.000000000000D+00
    0.200000000000D+01 0.000000000000D+00-0.176951289177D-07 0.310000000000D+02
    0.331200000000D+06 0.400000000000D+01 0.000000000000D+00 0.000000000000D+00
25 16  8 10 22  0  0.0-0.224750488996D-03-0.693489710102D-11 0.000000000000D+00
    0.850000000000D+02-0.241875000000D+02 0.406338354195D-08 0.180506296339D+01
   -0.132620334625D-05 0.559664750472D-02 0.546313822269D-05 0.515371577644D+04
    0.338400000000D+06-0.633299350738D-07 0.646304308872D+00-0.186264514923D-07
    0.978501986421D+00 0.281781250000D+03 0.796526623651D+00-0.803962059675D-08
   -0.825034365993D-10 0.100000000000D+01 0.190900000000D+04 0.000000000000D+00
    0.200000000000D+01 0.000000000000D+00 0.558793544769D-08 0.850000000000D+02
    0.331200000000D+06 0.400000000000D+01 0.000000000000D+00 0.000000000000D+00
27 16  8 10 22  0  0.0 0.125176273286D-03 0.454747350886D-11 0.000000000000D+00
    0.500000000000D+01-0.277812500000D+02 0.422196157593D-08-0.544905196780D+00
   -0.134296715260D-05 0.378239178099D-02 0.780075788498D-05 0.515365046692D+04
    0.338400000000D+06 0.670552253723D-07 0.168739917198D+01-0.558793544769D-08
    0.971883292989D+00 0.234718750000D+03 0.344436518958D+00-0.798604693662D-08
    0.220723479733D-09 0.000000000000D+00 0.190900000000D+04 0.000000000000D+00
    0.200000000000D+01 0.000000000000D+00 0.186264514923D-08 0.500000000000D+01
    0.331200000000D+06 0.400000000000D+01 0.000000000000D+00 0.000000000000D+00
28 16  8 10 22  0  0.0 0.543609261513D-03 0.284217094304D-11 0.000000000000D+00
    0.920000000000D+02-0.273125000000D+02 0.388301888618D-08 0.304228547632D+00
   -0.149384140968D-05 0.197701919824D-01 0.664778053761D-05 0.515363103104D+04
    0.338400000000D+06-0.314787030220D-06 0.721758799968D+00-0.819563865662D-07
    0.989528886513D+00 0.269562500000D+03-0.161356742569D+01-0.820605610089D-08
   -0.155720772110D-09 0.000000000000D+00 0.190900000000D+04 0.000000000000D+00
    0.280000000000D+01 0.000000000000D+00-0.107102096081D-07 0.920000000000D+02
    0.335550000000D+06 0.400000000000D+01 0.000000000000D+00 0.000000000000D+00
29 16  8 10 22  0  0.0 0.653899274766D-03-0.795807864051D-12 0.000000000000D+00
    0.190000000000D+02-0.312500000000D+02 0.408945605654D-08 0.151081009803D+01
   -0.188313424587D-05 0.653019407764D-03 0.826641917229D-05 0.515376963043D+04
    0.338400000000D+06 0.260770320892D-07 0.174756080755D+01 0.242143869400D-07
    0.977947733574D+00 0.229968750000D+03 0.761609415518D-01-0.782818321811D-08
    0.237867050975D-09 0.100000000000D+01 0.190900000000D+04 0.000000000000D+00
    0.200000000000D+01 0.000000000000D+00-0.102445483208D-07 0.190000000000D+02
    0.331200000000D+06 0.400000000000D+01 0.000000000000D+00 0.000000000000D+00
30 16  8 10 22  0  0.0 0.144775025547D-03 0.204636307899D-11 0.000000000000D+00
    0.410000000000D+02 0.475937500000D+02 0.474734060293D-08 0.301944599111D+01
    0.242888927460D-05 0.234702124726D-02 0.524707138538D-05 0.515357590866D+04
    0.338400000000D+06 0.558793544769D-08-0.336147977684D+00-0.391155481338D-07
    0.951489653203D+00 0.274187500000D+03 0.313054107114D+01-0.830784605514D-08
   -0.353586156854D-10 0.000000000000D+00 0.190900000000D+04 0.000000000000D+00
    0.200000000000D+01 0.000000000000D+00 0.372529029846D-08 0.410000000000D+02
    0.331260000000D+06 0.400000000000D+01 0.000000000000D+00 0.000000000000D+00
31 16  8 10 22  0  0.0 0.254195183516D-03-0.204636307899D-11 0.000000000000D+00
    0.770000000000D+02 0.486250000000D+02 0.424874840600D-08 0.277044431697D+01
    0.253692269325D-05 0.818237580825D-02 0.582076609135D-05 0.515380057335D+04
    0.338400000000D+06-0.391155481338D-07-0.369521001176D+00 0.912696123123D-07
    0.970503238978D+00 0.275281250000D+03-0.392561981405D+00-0.793783064251D-08
   -0.764317551180D-10 0.100000000000D+01 0.190900000000D+04 0.000000000000D+00
    0.200000000000D+01 0.000000000000D+00-0.135041773319D-07 0.770000000000D+02
    0.331200000000D+06 0.400000000000D+01 0.000000000000D+00 0.000000000000D+00
32 16  8 10 22  0  0.0-0.753225758672D-04-0.122781784739D-10 0.000000000000D+00
    0.710000000000D+02 0.288750000000D+02 0.458983384633D-08-0.194541874421D+00
    0.147148966789D-05 0.635328586213D-03 0.895187258720D-05 0.515363426209D+04
    0.338400000000D+06 0.186264514923D-07-0.145585712961D+01 0.130385160446D-07
    0.958913583560D+00 0.204875000000D+03-0.227924140337D+01-0.803390598492D-08
   -0.207151490406D-09 0.100000000000D+01 0.190900000000D+04 0.000000000000D+00
    0.200000000000D+01 0.000000000000D+00 0.931322574616D-09 0.710000000000D+02
    0.331200000000D+06 0.000000000000D+00 0.000000000000D+00 0.000000000000D+00
 6 16  8 10 23 59 44.0 0.230873003602D-03 0.522959453519D-11 0.000000000000D+00
    0.900000000000D+01-0.153125000000D+02 0.469090968093D-08-0.131856144132D+01
   -0.746920704842D-06 0.270126271062D-03 0.705942511559D-05 0.515374246025D+04
    0.345584000000D+06 0.372529029846D-08 0.273688390538D+01 0.111758708954D-07
    0.965075068279D+00 0.249406250000D+03-0.136038297618D+01-0.807747931658D-08
    0.293583657509D-09 0.000000000000D+00 0.190900000000D+04 0.000000000000D+00
    0.200000000000D+01 0.000000000000D+00 0.419095158577D-08 0.900000000000D+01
    0.342120000000D+06 0.400000000000D+01 0.000000000000D+00 0.000000000000D+00
20 16  8 10 23 59 44.0 0.429335050285D-03 0.216004991671D-11 0.000000000000D+00
    0.150000000000D+02-0.201250000000D+02 0.564952103951D-08-0.334952931608D+00
   -0.951811671257D-06 0.462814630009D-02 0.727549195290D-05 0.515377538490D+04
    0.345584000000D+06-0.204890966415D-07-0.258397810291D+01-0.130385160446D-07
    0.926569387928D+00 0.220812500000D+03 0.141271202108D+01-0.862607359630D-08
   -0.146791828755D-09 0.100000000000D+01 0.190900000000D+04 0.000000000000D+00
    0.200000000000D+01 0.000000000000D+00-0.838190317154D-08 0.150000000000D+02
    0.345570000000D+06 0.400000000000D+01 0.000000000000D+00 0.000000000000D+00
28 16  8 10 23 59 44.0 0.543619040400D-03 0.272848410532D-11 0.000000000000D+00
    0.340000000000D+02-0.265937500000D+02 0.381765902082D-08 0.135209732709D+01
   -0.168383121491D-05 0.197700991994D-01 0.650249421596D-05 0.515363091850D+04
    0.345584000000D+06-0.206753611565D-06 0.721699515213D+00-0.452622771263D-06
    0.989528716814D+00 0.270593750000D+03-0.161356710531D+01-0.797676083553D-08
   -0.760745973838D-10 0.000000000000D+00 0.190900000000D+04 0.000000000000D+00
    0.200000000000D+01 0.000000000000D+00-0.107102096081D-07 0.340000000000D+02
    0.338400000000D+06 0.400000000000D+01 0.000000000000D+00 0.000000000000D+00
